OBJECT_NAME,OBJECT_ID,EPOCH,MEAN_MOTION,ECCENTRICITY,INCLINATION,RA_OF_ASC_NODE,ARG_OF_PERICENTER,MEAN_ANOMALY,EPHEMERIS_TYPE,CLASSIFICATION_TYPE,NORAD_CAT_ID,ELEMENT_SET_NO,REV_AT_EPOCH,BSTAR,MEAN_MOTION_DOT,MEAN_MOTION_DDOT
HULIANWANG DIGUI-01,2024-240A,2026-03-01T11:50:15.723456,13.24420241,.0001913,86.5022,19.5447,87.0531,273.0822,0,U,62323,999,5838,.38223E-4,.31E-6,0
HULIANWANG DIGUI-02,2024-240B,2026-03-01T12:01:00.767712,13.24421828,.0001821,86.5051,19.6711,90.6192,269.5151,0,U,62324,999,5839,.59608E-4,.4E-6,0
HULIANWANG DIGUI-03,2024-240C,2026-03-01T11:39:13.305888,13.24421810,.0001997,86.5005,19.4674,86.0397,274.0966,0,U,62325,999,5838,.84268E-5,.18E-6,0
HULIANWANG DIGUI-04,2024-240D,2026-03-01T11:28:23.361888,13.24421539,.000203,86.5014,19.5013,87.0407,273.0960,0,U,62326,999,5838,.33889E-4,.29E-6,0
HULIANWANG DIGUI-05,2024-240E,2026-03-01T11:17:34.617120,13.24420778,.0002067,86.5066,19.7214,86.0054,274.1316,0,U,62327,999,5838,.61665E-4,.41E-6,0
HULIANWANG DIGUI-06,2024-240F,2026-03-01T10:55:41.002752,13.24422664,.0001997,86.5004,19.4477,90.3708,269.7654,0,U,62328,999,5838,.10058E-3,.58E-6,0
HULIANWANG DIGUI-07,2024-240G,2026-03-01T10:44:56.181408,13.24420768,.0001986,86.4975,19.3195,88.4117,271.7244,0,U,62329,999,5838,.12166E-3,.67E-6,0
HULIANWANG DIGUI-08,2024-240H,2026-03-01T11:06:43.313184,13.24420672,.0002104,86.5058,19.6817,87.4439,272.6936,0,U,62330,999,5838,.7115E-4,.45E-6,0
HULIANWANG DIGUI-09,2024-240J,2026-03-01T10:33:57.555072,13.24422000,.0001931,86.5023,19.5858,90.5844,269.5511,0,U,62331,999,5837,.12109E-3,.67E-6,0
HULIANWANG DIGUI-10,2024-240K,2026-03-01T12:11:55.466304,13.24421382,.0001911,86.5053,19.6843,92.6284,267.5069,0,U,62332,999,5838,.83284E-4,.5E-6,0
HULIANWANG DIGUI-11,2025-030A,2026-03-01T12:04:36.119712,13.29337514,.0000742,49.9994,262.0617,156.6356,203.4550,0,U,62971,999,5153,.11306E-3,-.72E-6,0
HULIANWANG DIGUI-12,2025-030B,2026-03-01T12:16:28.632000,13.29339656,.0000857,50.0010,262.1509,150.1404,209.9517,0,U,62972,999,5153,.11632E-3,-.7E-6,0
HULIANWANG DIGUI-13,2025-030C,2026-03-01T10:04:16.167648,13.29337662,.0000678,50.0013,262.3457,141.0580,219.0341,0,U,62973,999,5152,.10336E-3,-.76E-6,0
HULIANWANG DIGUI-14,2025-030D,2026-03-01T11:16:31.470816,13.29337360,.0000761,50.0018,261.9637,140.3212,219.7716,0,U,62974,999,5153,.13419E-3,-.62E-6,0
HULIANWANG DIGUI-15,2025-030E,2026-03-01T11:40:32.923488,13.29337601,.0000677,50.0013,262.0353,149.3421,210.7491,0,U,62975,999,5153,.11009E-3,-.73E-6,0
HULIANWANG DIGUI-16,2025-030F,2026-03-01T11:04:25.543200,13.29338077,.000079,50.0035,261.9724,139.8378,220.2553,0,U,62976,999,5153,.12469E-3,-.66E-6,0
HULIANWANG DIGUI-17,2025-030G,2026-03-01T12:40:42.293856,13.29337879,.0000739,50.0049,261.6980,146.3046,213.7873,0,U,62977,999,5154,.12669E-3,-.65E-6,0
HULIANWANG DIGUI-18,2025-030H,2026-03-01T12:28:38.858880,13.29337995,.0000786,50.0053,261.6647,148.9284,211.1635,0,U,62978,999,5154,.13338E-3,-.62E-6,0
HULIANWANG DIGUI-19,2025-030J,2026-03-01T11:28:13.615968,13.29341053,.0000791,50.0037,262.0636,141.2641,218.8288,0,U,62979,999,5153,.11865E-3,-.69E-6,0
HULIANWANG DIGUI-20,2025-086A,2026-03-01T10:39:33.783264,13.24419800,.0001672,86.5123,349.4111,92.0757,268.0569,0,U,63687,999,4061,.11296E-3,.63E-6,0
HULIANWANG DIGUI-21,2025-086B,2026-03-01T10:50:21.494688,13.24421389,.0001547,86.5152,349.4368,94.1683,265.9628,0,U,63688,999,4060,.91025E-4,.54E-6,0
HULIANWANG DIGUI-22,2025-086C,2026-03-01T11:01:14.961216,13.24421114,.0001739,86.5117,349.3386,92.7722,267.3611,0,U,63689,999,4060,.56792E-4,.39E-6,0
HULIANWANG DIGUI-23,2025-086D,2026-03-01T11:22:56.138304,13.24421900,.0001694,86.5159,349.4685,88.5529,271.5799,0,U,63690,999,4060,.32529E-4,.29E-6,0
HULIANWANG DIGUI-24,2025-086E,2026-03-01T11:33:53.352864,13.24420000,.0001704,86.5165,349.4924,92.9483,267.1846,0,U,63691,999,4060,.38422E-4,.31E-6,0
HULIANWANG DIGUI-25,2025-086F,2026-03-01T11:44:44.483136,13.24421399,.0001607,86.5104,349.3140,91.4182,268.7136,0,U,63692,999,4060,.50755E-4,.36E-6,0
HULIANWANG DIGUI-26,2025-086G,2026-03-01T11:11:56.831136,13.24420914,.0001662,86.5153,349.4463,97.1134,263.0189,0,U,63693,999,4060,.32129E-4,.28E-6,0
HULIANWANG DIGUI-27,2025-086H,2026-03-01T11:55:43.619232,13.24419782,.0001714,86.5113,349.3455,92.1980,267.9350,0,U,63694,999,4060,.76536E-4,.47E-6,0
HULIANWANG DIGUI-28,2025-086J,2026-03-01T10:28:35.429952,13.24421113,.0001717,86.5078,349.2717,91.9007,268.2323,0,U,63695,999,4059,.1292E-3,.7E-6,0
HULIANWANG DIGUI-29,2025-086K,2026-03-01T12:06:36.507744,13.24419939,.0001597,86.5105,349.3278,91.8419,268.2898,0,U,63696,999,4060,.10191E-3,.58E-6,0
HULIANWANG DIGUI-30,2025-121A,2026-03-01T12:17:14.068896,13.24423121,.0002014,86.4940,49.8863,80.3015,279.8346,0,U,64283,999,3590,.81528E-4,.5E-6,0
