HULIANWANG DIGUI-01     
1 62323U 24240A   26060.49323754  .00000031  00000+0  38223-4 0  9994
2 62323  86.5022  19.5447 0001913  87.0531 273.0822 13.24420241 58380
HULIANWANG DIGUI-02     
1 62324U 24240B   26060.50070333  .00000040  00000+0  59608-4 0  9999
2 62324  86.5051  19.6711 0001821  90.6192 269.5151 13.24421828 58397
HULIANWANG DIGUI-03     
1 62325U 24240C   26060.48557067  .00000018  00000+0  84268-5 0  9997
2 62325  86.5005  19.4674 0001997  86.0397 274.0966 13.24421810 58388
HULIANWANG DIGUI-04     
1 62326U 24240D   26060.47804817  .00000029  00000+0  33889-4 0  9999
2 62326  86.5014  19.5013 0002030  87.0407 273.0960 13.24421539 58380
HULIANWANG DIGUI-05     
1 62327U 24240E   26060.47053955  .00000041  00000+0  61665-4 0  9996
2 62327  86.5066  19.7214 0002067  86.0054 274.1316 13.24420778 58381
HULIANWANG DIGUI-06     
1 62328U 24240F   26060.45533568  .00000058  00000+0  10058-3 0  9995
2 62328  86.5004  19.4477 0001997  90.3708 269.7654 13.24422664 58388
HULIANWANG DIGUI-07     
1 62329U 24240G   26060.44787247  .00000067  00000+0  12166-3 0  9992
2 62329  86.4975  19.3195 0001986  88.4117 271.7244 13.24420768 58382
HULIANWANG DIGUI-08     
1 62330U 24240H   26060.46300131  .00000045  00000+0  71150-4 0  9994
2 62330  86.5058  19.6817 0002104  87.4439 272.6936 13.24420672 58382
HULIANWANG DIGUI-09     
1 62331U 24240J   26060.44024948  .00000067  00000+0  12109-3 0  9994
2 62331  86.5023  19.5858 0001931  90.5844 269.5511 13.24422000 58371
HULIANWANG DIGUI-10     
1 62332U 24240K   26060.50828086  .00000050  00000+0  83284-4 0  9992
2 62332  86.5053  19.6843 0001911  92.6284 267.5069 13.24421382 58388
HULIANWANG DIGUI-11     
1 62971U 25030A   26060.50319583 -.00000072  00000+0  11306-3 0  9996
2 62971  49.9994 262.0617 0000742 156.6356 203.4550 13.29337514 51531
HULIANWANG DIGUI-12     
1 62972U 25030B   26060.51144250 -.00000070  00000+0  11632-3 0  9995
2 62972  50.0010 262.1509 0000857 150.1404 209.9517 13.29339656 51538
HULIANWANG DIGUI-13     
1 62973U 25030C   26060.41963157 -.00000076  00000+0  10336-3 0  9996
2 62973  50.0013 262.3457 0000678 141.0580 219.0341 13.29337662 51522
HULIANWANG DIGUI-14     
1 62974U 25030D   26060.46980869 -.00000062  00000+0  13419-3 0  9991
2 62974  50.0018 261.9637 0000761 140.3212 219.7716 13.29337360 51539
HULIANWANG DIGUI-15     
1 62975U 25030E   26060.48649217 -.00000073  00000+0  11009-3 0  9998
2 62975  50.0013 262.0353 0000677 149.3421 210.7491 13.29337601 51538
HULIANWANG DIGUI-16     
1 62976U 25030F   26060.46140675 -.00000066  00000+0  12469-3 0  9994
2 62976  50.0035 261.9724 0000790 139.8378 220.2553 13.29338077 51537
HULIANWANG DIGUI-17     
1 62977U 25030G   26060.52826729 -.00000065  00000+0  12669-3 0  9994
2 62977  50.0049 261.6980 0000739 146.3046 213.7873 13.29337879 51544
HULIANWANG DIGUI-18     
1 62978U 25030H   26060.51989420 -.00000062  00000+0  13338-3 0  9993
2 62978  50.0053 261.6647 0000786 148.9284 211.1635 13.29337995 51541
HULIANWANG DIGUI-19     
1 62979U 25030J   26060.47793537 -.00000069  00000+0  11865-3 0  9991
2 62979  50.0037 262.0636 0000791 141.2641 218.8288 13.29341053 51533
HULIANWANG DIGUI-20     
1 63687U 25086A   26060.44414101  .00000063  00000+0  11296-3 0  9994
2 63687  86.5123 349.4111 0001672  92.0757 268.0569 13.24419800 40615
HULIANWANG DIGUI-21     
1 63688U 25086B   26060.45163767  .00000054  00000+0  91025-4 0  9994
2 63688  86.5152 349.4368 0001547  94.1683 265.9628 13.24421389 40600
HULIANWANG DIGUI-22     
1 63689U 25086C   26060.45920094  .00000039  00000+0  56792-4 0  9994
2 63689  86.5117 349.3386 0001739  92.7722 267.3611 13.24421114 40606
HULIANWANG DIGUI-23     
1 63690U 25086D   26060.47426086  .00000029  00000+0  32529-4 0  9991
2 63690  86.5159 349.4685 0001694  88.5529 271.5799 13.24421900 40602
HULIANWANG DIGUI-24     
1 63691U 25086E   26060.48186751  .00000031  00000+0  38422-4 0  9996
2 63691  86.5165 349.4924 0001704  92.9483 267.1846 13.24420000 40600
HULIANWANG DIGUI-25     
1 63692U 25086F   26060.48940374  .00000036  00000+0  50755-4 0  9994
2 63692  86.5104 349.3140 0001607  91.4182 268.7136 13.24421399 40606
HULIANWANG DIGUI-26     
1 63693U 25086G   26060.46662999  .00000028  00000+0  32129-4 0  9993
2 63693  86.5153 349.4463 0001662  97.1134 263.0189 13.24420914 40609
HULIANWANG DIGUI-27     
1 63694U 25086H   26060.49703263  .00000047  00000+0  76536-4 0  9998
2 63694  86.5113 349.3455 0001714  92.1980 267.9350 13.24419782 40602
HULIANWANG DIGUI-28     
1 63695U 25086J   26060.43652118  .00000070  00000+0  12920-3 0  9997
2 63695  86.5078 349.2717 0001717  91.9007 268.2323 13.24421113 40596
HULIANWANG DIGUI-29     
1 63696U 25086K   26060.50458921  .00000058  00000+0  10191-3 0  9996
2 63696  86.5105 349.3278 0001597  91.8419 268.2898 13.24419939 40605
HULIANWANG DIGUI-30     
1 64283U 25121A   26060.51196839  .00000050  00000+0  81528-4 0  9992
2 64283  86.4940  49.8863 0002014  80.3015 279.8346 13.24423121 35907
